KUIPER-00232            
1 67148U 25301R   26005.57446906  .00043773  00000+0  11933-2 0  9993
2 67148  51.8737   9.9958 0002418  75.4860 284.6395 15.37028036  4033
KUIPER-00241            
1 67149U 25301S   26005.51546418  .00053601  00000+0  14758-2 0  9996
2 67149  51.8743  10.3481 0002927 119.0905 241.0375 15.36629773  4352
KUIPER-00245            
1 67150U 25301T   26005.58336806 -.00254384  00000+0 -78975-2 0  9997
2 67150  51.8741  10.1260 0006580 155.1298 165.8498 15.33844858  3516
KUIPER-00246            
1 67151U 25301U   26005.51927072  .00032005  00000+0  89526-3 0  9999
2 67151  51.8741  10.3745 0004057 140.5908 219.5375 15.36372077  4042
KUIPER-00247            
1 67152U 25301V   26005.54510028  .00028470  00000+0  85070-3 0  9993
2 67152  51.8642  10.5349 0011234 184.9015 175.1862 15.34310682  4029
KUIPER-00248            
1 67153U 25301W   26005.47067647  .00035695  00000+0  10313-2 0  9994
2 67153  51.8691  10.7932 0009034 171.5948 188.5191 15.35278323  4182
KUIPER-00249            
1 67154U 25301X   26005.46845560  .00027742  00000+0  80160-3 0  9994
2 67154  51.8666  10.7774 0008338 168.5249 191.5929 15.35408655  4013
KUIPER-00250            
1 67155U 25301Y   26005.52678349  .00047355  00000+0  13340-2 0  9998
2 67155  51.8726  10.4239 0006660 157.1308 202.9976 15.35955405  4053
